[{"OBJECT_NAME":"QIANFAN-105","OBJECT_ID":"2025-233Q","EPOCH":"2026-03-09T22:48:57.074976","MEAN_MOTION":13.50981855,"ECCENTRICITY":0.00021259,"INCLINATION":88.9961,"RA_OF_ASC_NODE":52.9482,"ARG_OF_PERICENTER":91.2864,"MEAN_ANOMALY":268.8531,"EPHEMERIS_TYPE":0,"CLASSIFICATION_TYPE":"U","NORAD_CAT_ID":66047,"ELEMENT_SET_NO":999,"REV_AT_EPOCH":1994,"BSTAR":9.2711293e-5,"MEAN_MOTION_DOT":7.2e-7,"MEAN_MOTION_DDOT":0},{"OBJECT_NAME":"THORAD AGENA D DEB","OBJECT_ID":"1970-025DS","EPOCH":"2026-03-09T10:26:26.274048","MEAN_MOTION":13.26883764,"ECCENTRICITY":0.01838948,"INCLINATION":99.7479,"RA_OF_ASC_NODE":230.1145,"ARG_OF_PERICENTER":166.8853,"MEAN_ANOMALY":252.4923,"EPHEMERIS_TYPE":0,"CLASSIFICATION_TYPE":"U","NORAD_CAT_ID":4772,"ELEMENT_SET_NO":999,"REV_AT_EPOCH":68894,"BSTAR":0.0015860797,"MEAN_MOTION_DOT":7.34e-6,"MEAN_MOTION_DDOT":0}]
